<?xml version="1.0" encoding="UTF-8"?>
<ndm xmlns:xsi="http://www.w3.org/2001/XMLSchema-instance" xsi:noNamespaceSchemaLocation="https://sanaregistry.org/r/ndmxml_unqualified/ndmxml-2.0.0-master-2.0.xsd">
<omm id="CCSDS_OMM_VERS" version="2.0">
<header><CREATION_DATE/><ORIGINATOR/></header><body><segment><metadata><OBJECT_NAME>IRIDIUM 921 [-]</OBJECT_NAME><OBJECT_ID>1997-034E</OBJECT_ID><CENTER_NAME>EARTH</CENTER_NAME><REF_FRAME>TEME</REF_FRAME><TIME_SYSTEM>UTC</TIME_SYSTEM><MEAN_ELEMENT_THEORY>SGP4</MEAN_ELEMENT_THEORY></metadata><data><meanElements><EPOCH>2023-09-02T18:35:15.070272</EPOCH><MEAN_MOTION>15.24568827</MEAN_MOTION><ECCENTRICITY>.0003473</ECCENTRICITY><INCLINATION>86.3832</INCLINATION><RA_OF_ASC_NODE>68.9827</RA_OF_ASC_NODE><ARG_OF_PERICENTER>266.3701</ARG_OF_PERICENTER><MEAN_ANOMALY>93.7147</MEAN_ANOMALY></meanElements><tleParameters><EPHEMERIS_TYPE>0</EPHEMERIS_TYPE><CLASSIFICATION_TYPE>U</CLASSIFICATION_TYPE><NORAD_CAT_ID>24873</NORAD_CAT_ID><ELEMENT_SET_NO>999</ELEMENT_SET_NO><REV_AT_EPOCH>43105</REV_AT_EPOCH><BSTAR>.52494E-3</BSTAR><MEAN_MOTION_DOT>.12968E-3</MEAN_MOTION_DOT><MEAN_MOTION_DDOT>0</MEAN_MOTION_DDOT></tleParameters></data></segment></body></omm>
<omm id="CCSDS_OMM_VERS" version="2.0">
<header><CREATION_DATE/><ORIGINATOR/></header><body><segment><metadata><OBJECT_NAME>IRIDIUM 26 [-]</OBJECT_NAME><OBJECT_ID>1997-043A</OBJECT_ID><CENTER_NAME>EARTH</CENTER_NAME><REF_FRAME>TEME</REF_FRAME><TIME_SYSTEM>UTC</TIME_SYSTEM><MEAN_ELEMENT_THEORY>SGP4</MEAN_ELEMENT_THEORY></metadata><data><meanElements><EPOCH>2023-09-02T19:28:46.016544</EPOCH><MEAN_MOTION>14.35979461</MEAN_MOTION><ECCENTRICITY>.0002363</ECCENTRICITY><INCLINATION>86.3987</INCLINATION><RA_OF_ASC_NODE>24.7121</RA_OF_ASC_NODE><ARG_OF_PERICENTER>93.2260</ARG_OF_PERICENTER><MEAN_ANOMALY>266.9208</MEAN_ANOMALY></meanElements><tleParameters><EPHEMERIS_TYPE>0</EPHEMERIS_TYPE><CLASSIFICATION_TYPE>U</CLASSIFICATION_TYPE><NORAD_CAT_ID>24903</NORAD_CAT_ID><ELEMENT_SET_NO>999</ELEMENT_SET_NO><REV_AT_EPOCH>36294</REV_AT_EPOCH><BSTAR>.22366E-3</BSTAR><MEAN_MOTION_DOT>.669E-5</MEAN_MOTION_DOT><MEAN_MOTION_DDOT>0</MEAN_MOTION_DDOT></tleParameters></data></segment></body></omm>
<omm id="CCSDS_OMM_VERS" version="2.0">
<header><CREATION_DATE/><ORIGINATOR/></header><body><segment><metadata><OBJECT_NAME>IRIDIUM 22 [-]</OBJECT_NAME><OBJECT_ID>1997-043E</OBJECT_ID><CENTER_NAME>EARTH</CENTER_NAME><REF_FRAME>TEME</REF_FRAME><TIME_SYSTEM>UTC</TIME_SYSTEM><MEAN_ELEMENT_THEORY>SGP4</MEAN_ELEMENT_THEORY></metadata><data><meanElements><EPOCH>2023-09-02T18:51:31.934592</EPOCH><MEAN_MOTION>14.34890718</MEAN_MOTION><ECCENTRICITY>.0002111</ECCENTRICITY><INCLINATION>86.3984</INCLINATION><RA_OF_ASC_NODE>27.7305</RA_OF_ASC_NODE><ARG_OF_PERICENTER>93.0894</ARG_OF_PERICENTER><MEAN_ANOMALY>267.0544</MEAN_ANOMALY></meanElements><tleParameters><EPHEMERIS_TYPE>0</EPHEMERIS_TYPE><CLASSIFICATION_TYPE>U</CLASSIFICATION_TYPE><NORAD_CAT_ID>24907</NORAD_CAT_ID><ELEMENT_SET_NO>999</ELEMENT_SET_NO><REV_AT_EPOCH>36304</REV_AT_EPOCH><BSTAR>.21951E-3</BSTAR><MEAN_MOTION_DOT>.643E-5</MEAN_MOTION_DOT><MEAN_MOTION_DDOT>0</MEAN_MOTION_DDOT></tleParameters></data></segment></body></omm>
<omm id="CCSDS_OMM_VERS" version="2.0">
<header><CREATION_DATE/><ORIGINATOR/></header><body><segment><metadata><OBJECT_NAME>DUMMY MASS 1 [-]</OBJECT_NAME><OBJECT_ID>1997-048A</OBJECT_ID><CENTER_NAME>EARTH</CENTER_NAME><REF_FRAME>TEME</REF_FRAME><TIME_SYSTEM>UTC</TIME_SYSTEM><MEAN_ELEMENT_THEORY>SGP4</MEAN_ELEMENT_THEORY></metadata><data><meanElements><EPOCH>2023-09-02T18:47:17.339712</EPOCH><MEAN_MOTION>14.85804098</MEAN_MOTION><ECCENTRICITY>.0005023</ECCENTRICITY><INCLINATION>86.3295</INCLINATION><RA_OF_ASC_NODE>77.1916</RA_OF_ASC_NODE><ARG_OF_PERICENTER>315.4799</ARG_OF_PERICENTER><MEAN_ANOMALY>44.6021</MEAN_ANOMALY></meanElements><tleParameters><EPHEMERIS_TYPE>0</EPHEMERIS_TYPE><CLASSIFICATION_TYPE>U</CLASSIFICATION_TYPE><NORAD_CAT_ID>24925</NORAD_CAT_ID><ELEMENT_SET_NO>999</ELEMENT_SET_NO><REV_AT_EPOCH>40807</REV_AT_EPOCH><BSTAR>.52476E-4</BSTAR><MEAN_MOTION_DOT>.484E-5</MEAN_MOTION_DOT><MEAN_MOTION_DDOT>0</MEAN_MOTION_DDOT></tleParameters></data></segment></body></omm>
<omm id="CCSDS_OMM_VERS" version="2.0">
<header><CREATION_DATE/><ORIGINATOR/></header><body><segment><metadata><OBJECT_NAME>DUMMY MASS 2 [-]</OBJECT_NAME><OBJECT_ID>1997-048B</OBJECT_ID><CENTER_NAME>EARTH</CENTER_NAME><REF_FRAME>TEME</REF_FRAME><TIME_SYSTEM>UTC</TIME_SYSTEM><MEAN_ELEMENT_THEORY>SGP4</MEAN_ELEMENT_THEORY></metadata><data><meanElements><EPOCH>2023-09-02T13:42:00.922464</EPOCH><MEAN_MOTION>14.85566105</MEAN_MOTION><ECCENTRICITY>.0006193</ECCENTRICITY><INCLINATION>86.3295</INCLINATION><RA_OF_ASC_NODE>78.7838</RA_OF_ASC_NODE><ARG_OF_PERICENTER>327.9739</ARG_OF_PERICENTER><MEAN_ANOMALY>32.1108</MEAN_ANOMALY></meanElements><tleParameters><EPHEMERIS_TYPE>0</EPHEMERIS_TYPE><CLASSIFICATION_TYPE>U</CLASSIFICATION_TYPE><NORAD_CAT_ID>24926</NORAD_CAT_ID><ELEMENT_SET_NO>999</ELEMENT_SET_NO><REV_AT_EPOCH>40783</REV_AT_EPOCH><BSTAR>.51078E-4</BSTAR><MEAN_MOTION_DOT>.469E-5</MEAN_MOTION_DOT><MEAN_MOTION_DDOT>0</MEAN_MOTION_DDOT></tleParameters></data></segment></body></omm>
<omm id="CCSDS_OMM_VERS" version="2.0">
<header><CREATION_DATE/><ORIGINATOR/></header><body><segment><metadata><OBJECT_NAME>IRIDIUM 29 [-]</OBJECT_NAME><OBJECT_ID>1997-051A</OBJECT_ID><CENTER_NAME>EARTH</CENTER_NAME><REF_FRAME>TEME</REF_FRAME><TIME_SYSTEM>UTC</TIME_SYSTEM><MEAN_ELEMENT_THEORY>SGP4</MEAN_ELEMENT_THEORY></metadata><data><meanElements><EPOCH>2023-09-02T19:27:06.318720</EPOCH><MEAN_MOTION>14.35353641</MEAN_MOTION><ECCENTRICITY>.0001973</ECCENTRICITY><INCLINATION>86.3923</INCLINATION><RA_OF_ASC_NODE>57.7302</RA_OF_ASC_NODE><ARG_OF_PERICENTER>95.4526</ARG_OF_PERICENTER><MEAN_ANOMALY>264.6895</MEAN_ANOMALY></meanElements><tleParameters><EPHEMERIS_TYPE>0</EPHEMERIS_TYPE><CLASSIFICATION_TYPE>U</CLASSIFICATION_TYPE><NORAD_CAT_ID>24944</NORAD_CAT_ID><ELEMENT_SET_NO>999</ELEMENT_SET_NO><REV_AT_EPOCH>35951</REV_AT_EPOCH><BSTAR>.19922E-3</BSTAR><MEAN_MOTION_DOT>.591E-5</MEAN_MOTION_DOT><MEAN_MOTION_DDOT>0</MEAN_MOTION_DDOT></tleParameters></data></segment></body></omm>
<omm id="CCSDS_OMM_VERS" version="2.0">
<header><CREATION_DATE/><ORIGINATOR/></header><body><segment><metadata><OBJECT_NAME>IRIDIUM 33 [-]</OBJECT_NAME><OBJECT_ID>1997-051C</OBJECT_ID><CENTER_NAME>EARTH</CENTER_NAME><REF_FRAME>TEME</REF_FRAME><TIME_SYSTEM>UTC</TIME_SYSTEM><MEAN_ELEMENT_THEORY>SGP4</MEAN_ELEMENT_THEORY></metadata><data><meanElements><EPOCH>2023-09-02T17:11:53.737152</EPOCH><MEAN_MOTION>14.34096514</MEAN_MOTION><ECCENTRICITY>.0009656</ECCENTRICITY><INCLINATION>86.3839</INCLINATION><RA_OF_ASC_NODE>57.0506</RA_OF_ASC_NODE><ARG_OF_PERICENTER>58.9145</ARG_OF_PERICENTER><MEAN_ANOMALY>301.2997</MEAN_ANOMALY></meanElements><tleParameters><EPHEMERIS_TYPE>0</EPHEMERIS_TYPE><CLASSIFICATION_TYPE>U</CLASSIFICATION_TYPE><NORAD_CAT_ID>24946</NORAD_CAT_ID><ELEMENT_SET_NO>999</ELEMENT_SET_NO><REV_AT_EPOCH>35906</REV_AT_EPOCH><BSTAR>.11248E-3</BSTAR><MEAN_MOTION_DOT>.334E-5</MEAN_MOTION_DOT><MEAN_MOTION_DDOT>0</MEAN_MOTION_DDOT></tleParameters></data></segment></body></omm>
<omm id="CCSDS_OMM_VERS" version="2.0">
<header><CREATION_DATE/><ORIGINATOR/></header><body><segment><metadata><OBJECT_NAME>IRIDIUM 28 [-]</OBJECT_NAME><OBJECT_ID>1997-051E</OBJECT_ID><CENTER_NAME>EARTH</CENTER_NAME><REF_FRAME>TEME</REF_FRAME><TIME_SYSTEM>UTC</TIME_SYSTEM><MEAN_ELEMENT_THEORY>SGP4</MEAN_ELEMENT_THEORY></metadata><data><meanElements><EPOCH>2023-09-02T17:23:50.264448</EPOCH><MEAN_MOTION>14.36271119</MEAN_MOTION><ECCENTRICITY>.0002503</ECCENTRICITY><INCLINATION>86.3931</INCLINATION><RA_OF_ASC_NODE>55.6560</RA_OF_ASC_NODE><ARG_OF_PERICENTER>86.5301</ARG_OF_PERICENTER><MEAN_ANOMALY>273.6182</MEAN_ANOMALY></meanElements><tleParameters><EPHEMERIS_TYPE>0</EPHEMERIS_TYPE><CLASSIFICATION_TYPE>U</CLASSIFICATION_TYPE><NORAD_CAT_ID>24948</NORAD_CAT_ID><ELEMENT_SET_NO>999</ELEMENT_SET_NO><REV_AT_EPOCH>36001</REV_AT_EPOCH><BSTAR>.16112E-3</BSTAR><MEAN_MOTION_DOT>.49E-5</MEAN_MOTION_DOT><MEAN_MOTION_DDOT>0</MEAN_MOTION_DDOT></tleParameters></data></segment></body></omm>

</ndm>
