IRIDIUM 921 [-]         
1 24873U 97034E   23245.77447998  .00012968  00000+0  52494-3 0  9990
2 24873  86.3832  68.9827 0003473 266.3701  93.7147 15.24568827431050
IRIDIUM 26 [-]          
1 24903U 97043A   23245.81164371  .00000669  00000+0  22366-3 0  9990
2 24903  86.3987  24.7121 0002363  93.2260 266.9208 14.35979461362940
IRIDIUM 22 [-]          
1 24907U 97043E   23245.78578628  .00000643  00000+0  21951-3 0  9995
2 24907  86.3984  27.7305 0002111  93.0894 267.0544 14.34890718363043
DUMMY MASS 1 [-]        
1 24925U 97048A   23245.78283958  .00000484  00000+0  52476-4 0  9999
2 24925  86.3295  77.1916 0005023 315.4799  44.6021 14.85804098408079
DUMMY MASS 2 [-]        
1 24926U 97048B   23245.57084401  .00000469  00000+0  51078-4 0  9999
2 24926  86.3295  78.7838 0006193 327.9739  32.1108 14.85566105407836
IRIDIUM 29 [-]          
1 24944U 97051A   23245.81048980  .00000591  00000+0  19922-3 0  9999
2 24944  86.3923  57.7302 0001973  95.4526 264.6895 14.35353641359519
IRIDIUM 33 [-]          
1 24946U 97051C   23245.71659418  .00000334  00000+0  11248-3 0  9992
2 24946  86.3839  57.0506 0009656  58.9145 301.2997 14.34096514359066
IRIDIUM 28 [-]          
1 24948U 97051E   23245.72488732  .00000490  00000+0  16112-3 0  9992
2 24948  86.3931  55.6560 0002503  86.5301 273.6182 14.36271119360013
